[{"OBJECT_NAME":"BRO-11","OBJECT_ID":"2023-174J","EPOCH":"2026-03-09T23:01:09.890400","MEAN_MOTION":15.26267731,"ECCENTRICITY":0.00104518,"INCLINATION":97.3961,"RA_OF_ASC_NODE":146.7679,"ARG_OF_PERICENTER":189.9892,"MEAN_ANOMALY":170.1141,"EPHEMERIS_TYPE":0,"CLASSIFICATION_TYPE":"U","NORAD_CAT_ID":58264,"ELEMENT_SET_NO":999,"REV_AT_EPOCH":12961,"BSTAR":0.00032296323,"MEAN_MOTION_DOT":8.313e-5,"MEAN_MOTION_DDOT":0},{"OBJECT_NAME":"STARLINK-33782","OBJECT_ID":"2025-124R","EPOCH":"2026-03-09T12:08:35.069280","MEAN_MOTION":15.27590471,"ECCENTRICITY":0.00017233,"INCLINATION":42.9997,"RA_OF_ASC_NODE":122.6298,"ARG_OF_PERICENTER":267.9367,"MEAN_ANOMALY":92.1287,"EPHEMERIS_TYPE":0,"CLASSIFICATION_TYPE":"U","NORAD_CAT_ID":64332,"ELEMENT_SET_NO":999,"REV_AT_EPOCH":4175,"BSTAR":0.0012552841,"MEAN_MOTION_DOT":0.00034454,"MEAN_MOTION_DDOT":0}]
